ISS (ZARYA)             
1 25544U 98067A   26271.46476993  .00006013  00000+0  11848-3 0  9990
2 25544  51.6312 148.9632 0007159 198.2260 161.8473 15.48680135587767
POISK                   
1 36086U 09060A   26272.11005302  .00004557  00000+0  91790-4 0  9999
2 36086  51.6312 145.7721 0007123 200.7262 159.3438 15.48685648587123
CSS (TIANHE)            
1 48274U 21035A   26271.53947394  .00020212  00000+0  24528-3 0  9998
2 48274  41.4702  54.3995 0002792 305.9369  54.1211 15.60120089309306
ISS (NAUKA)             
1 49044U 21066A   26272.11005302  .00004557  00000+0  91790-4 0  9997
2 49044  51.6312 145.7721 0007123 200.7262 159.3438 15.48685648587165
FREGAT DEB              
1 49271U 11037PF  26271.59009491  .00012265  00000+0  16939-1 0  9994
2 49271  51.6491  50.2926 0945536 153.4852 211.7747 12.44820732237919
CSS (WENTIAN)           
1 53239U 22085A   26271.53947394  .00020212  00000+0  24528-3 0  9991
2 53239  41.4702  54.3995 0002792 305.9369  54.1211 15.60120089288231
CSS (MENGTIAN)          
1 54216U 22143A   26271.53947394  .00020212  00000+0  24528-3 0  9992
2 54216  41.4702  54.3995 0002792 305.9369  54.1211 15.60120089308353
HRC MONOBLOCK CAMERA    
1 66052U 98067XS  26270.82928759  .00341138  61685-4  58207-3 0  9991
2 66052  51.6105 103.8057 0006103 246.1865 113.8506 16.01965736 54271
SZ-21 MODULE            
1 66515U 25246C   26271.03647027  .00068309  00000+0  25217-3 0  9994
2 66515  41.4703  22.1410 0010175  32.0794 328.0672 15.87135151 50025
DUPLEX                  
1 66906U 98067XT  26272.16220189  .00039742  00000+0  31303-3 0  9992
2 66906  51.6224 121.2928 0004530 209.0822 150.9923 15.71030048 46951
KNACKSAT-2              
1 67683U 98067YA  26271.22987367  .00052262  00000+0  41729-3 0  9994
2 67683  51.6241 132.3530 0008380 222.3310 137.7041 15.70549753 36413
GXIBA-1                 
1 67685U 98067YC  26270.98636143  .00078060  00000+0  51021-3 0  9991
2 67685  51.6208 130.6821 0009439 220.2066 139.8236 15.75075489 36417
UITMSAT-2               
1 67686U 98067YD  26271.29945887  .00233253  31009-4  75683-3 0  9990
2 67686  51.6181 122.1859 0008774 222.0138 138.0196 15.90270149 36554
LEOPARD                 
1 67687U 98067YE  26271.20323410  .00165723  00000+0  91628-3 0  9999
2 67687  51.6210 129.9149 0009506 214.6549 145.3834 15.78526510 36363
HMU-SAT2                
1 67688U 98067YF  26270.82901059  .00133847  00000+0  64472-3 0  9997
2 67688  51.6224 128.1242 0008282 206.1373 153.9212 15.81660972 36354
CREW DRAGON 12          
1 67796U 26031A   26271.46476993  .00006013  00000+0  11848-3 0  9997
2 67796  51.6312 148.9632 0007159 198.2260 161.8473 15.48680135587896
CYGNUS NG-24            
1 68689U 26079A   26271.46476993  .00006013  00000+0  11848-3 0  9991
2 68689  51.6312 148.9632 0007159 198.2260 161.8473 15.48680135587911
PROGRESS-MS 34          
1 68837U 26093A   26271.46476993  .00006013  00000+0  11848-3 0  9992
2 68837  51.6312 148.9632 0007159 198.2260 161.8473 15.48680135587938
TIANZHOU-10             
1 69049U 26102A   26271.53947394  .00020212  00000+0  24528-3 0  9991
2 69049  41.4702  54.3995 0002792 305.9369  54.1211 15.60120089309286
SHENZHOU-23 (SZ-23)     
1 69180U 26113A   26271.53947394  .00020212  00000+0  24528-3 0  9999
2 69180  41.4702  54.3995 0002792 305.9369  54.1211 15.60120089308179
ATLAS CENTAUR 2         
1 00694U 63047A   26271.31656103  .00002084  00000+0  24443-3 0  9995
2 00694  30.3512 142.5703 0544757  67.1620 298.5565 14.12744661160295
THOR AGENA D R/B        
1 00733U 64002A   26272.04499216  .00000088  00000+0  48644-4 0  9994
2 00733  99.1121 296.3669 0033239  28.0173 332.2790 14.34098169267444
SL-3 R/B                
1 00877U 64053B   26271.59142568  .00000057  00000+0  35374-4 0  9995
2 00877  65.0753  96.3125 0075912 228.1550 131.3055 14.61467571296448
SL-8 R/B                
1 02802U 67045B   26272.16011781  .00000131  00000+0  44073-4 0  9994
2 02802  74.0122 328.0578 0065452 286.1735  73.2226 14.45723881118428
SL-8 R/B                
1 03230U 68040B   26272.08067057  .00001281  00000+0  94705-4 0  9998
2 03230  74.0283 257.7332 0023573  18.9807 341.2255 15.04251676120581
OAO 2                   
1 03597U 68110A   26272.15239948  .00000127  00000+0  39431-4 0  9993
2 03597  34.9926 209.1592 0005087  24.0163 336.0764 14.47383988 48593
ISIS 1                  
1 03669U 69009A   26272.10364593  .00000091  00000+0  52288-4 0  9996
2 03669  88.4363 132.9841 1707864  38.4895 332.6312 11.30451843371513
SERT 2                  
1 04327U 70009A   26271.85784140 -.00000008  00000+0  46344-4 0  9990
2 04327  99.2885 204.0187 0005219  16.7703  31.4160 13.58746749807488
SL-3 R/B                
1 05118U 71028B   26272.17482441  .00067119  00000+0  32940-3 0  9997
2 05118  81.2271 157.1363 0006381 265.2577  94.7959 15.81951697 20610
ASTEX 1                 
1 05560U 71089A   26272.14503150  .00000313  00000+0  79357-4 0  9990
2 05560  92.7126 217.3879 0017635 113.3639 246.9425 14.50918601891803
SL-8 R/B                
1 05730U 71119B   26272.08964228  .00005837  00000+0  30080-3 0  9998
2 05730  73.8855 154.5769 0537305  79.1421 286.9701 14.40549463684750
OAO 3 (COPERNICUS)      
1 06153U 72065A   26272.19060050  .00000197  00000+0  44722-4 0  9994
2 06153  35.0051 217.7741 0006228  21.0767 105.8582 14.60108143875952
ATLAS CENTAUR R/B       
1 06155U 72065B   26272.10553588  .00000603  00000+0  84547-4 0  9991
2 06155  35.0009 193.2450 0034130 282.4334  77.2548 14.78061894871374
SL-8 R/B                
1 08459U 75112B   26271.61008921  .00000120  00000+0  47848-4 0  9994
2 08459  74.0635   5.6007 0014912  42.1797 318.0502 14.38282973661041
SL-3 R/B                
1 10114U 77057B   26272.16850345  .00007677  00000+0  13970-3 0  9993
2 10114  97.5864  93.9417 0004935 264.2639  95.8049 15.49806994699806
SEASAT 1                
1 10967U 78064A   26271.57500397  .00000162  00000+0  83540-4 0  9994
2 10967 108.0077 191.2977 0002428 293.9557  66.1334 14.46294673535844
SL-14 R/B               
1 11267U 79011B   26272.05682397  .00000290  00000+0  25889-4 0  9990
2 11267  82.5204 263.5764 0017591  97.3284 262.9935 14.92086517559108
SL-8 R/B                
1 11574U 79089B   26271.89200382  .00000038  00000+0  19321-4 0  9991
2 11574  74.0674  74.8740 0015982 198.4959 161.5618 14.42439518465406
SL-14 R/B               
1 11672U 80005B   26272.06971860  .00000303  00000+0  27959-4 0  9997
2 11672  82.5117 114.3031 0015064 199.9005 160.1629 14.91102753506790
SL-8 R/B                
1 12139U 81003B   26271.58438093  .00016986  00000+0  39374-3 0  9994
2 12139  82.9324 101.4457 0238889 188.7343 170.9707 15.17602869345389
SL-3 R/B                
1 12465U 81046B   26271.41254475  .00008343  00000+0  16855-3 0  9992
2 12465  81.2307  45.5091 0017375  33.0347 327.1980 15.46152601469716
SL-3 R/B                
1 12904U 81103B   26272.14759234  .00002093  00000+0  87837-4 0  9993
2 12904  81.1598 334.4259 0011792 323.3233  36.7191 15.22980326  4198
SL-3 R/B                
1 13068U 82013B   26272.15437708  .00001849  00000+0  76244-4 0  9994
2 13068  81.1706 281.9689 0021094 208.8735 151.1332 15.23359399435316
SL-3 R/B                
1 13154U 82039B   26272.15099360  .00001767  00000+0  10339-3 0  9997
2 13154  81.1484 340.9667 0031209  11.0410 349.1494 15.10944700412359
SL-3 R/B                
1 13403U 82079B   26272.16470197  .00002452  00000+0  92047-4 0  9999
2 13403  81.1449 312.4234 0023485 192.6192 167.4458 15.26562247408727
SL-14 R/B               
1 13553U 82092B   26272.16687574  .00000222  00000+0  22119-4 0  9995
2 13553  82.5671 311.0113 0019934 350.5509  69.3649 14.86808281359168
SL-3 R/B                
1 13819U 83010B   26272.02862587  .00008958  00000+0  14938-3 0  9998
2 13819  81.0981 111.8385 0014980  53.7648 306.4981 15.51684061389427
SL-3 R/B                
1 14208U 83075B   26272.13356557  .00006153  00000+0  14451-3 0  9994
2 14208  97.6110 285.0338 0018663 214.7109 145.2921 15.42246228361479
COSMOS 1536             
1 14699U 84013A   26272.05895995  .00004029  00000+0  15501-3 0  9993
2 14699  82.5405 265.3084 0011746 288.7564  71.2399 15.26036109303619
SL-14 R/B               
1 14820U 84027B   26271.50276970  .00000274  00000+0  28368-4 0  9993
2 14820  82.5408  54.8036 0018559  26.3580 333.8576 14.86117464277757
SL-8 R/B                
1 15483U 85006B   26272.10454692  .00000175  00000+0  66535-4 0  9991
2 15483  74.0435 246.8242 0017131 112.8330 323.6924 14.37869294183267
SL-12 R/B(2)            
1 15772U 85042D   26271.57347090  .00000097  00000+0  64892-4 0  9992
2 15772  71.1105  19.0807 0034730 173.5041 275.3576 14.22023189143232
SL-14 R/B               
1 15945U 85069B   26271.89641856  .00000269  00000+0  27532-4 0  9996
2 15945  82.5296 193.8266 0017370 236.6749 123.2805 14.86577068203028
SL-16 R/B               
1 16182U 85097B   26271.57435006  .00000244  00000+0  14641-3 0  9993
2 16182  71.0016  73.4132 0009377 299.3817 130.1600 14.16621599115967
SL-14 R/B               
1 16496U 86006B   26271.54646225  .00000314  00000+0  30583-4 0  9998
2 16496  82.5245  68.8273 0075239 320.9236  38.6559 14.87020345179354
COSMOS 1743             
1 16719U 86034A   26271.32830606  .00061247  00000+0  35898-3 0  9996
2 16719  82.5252 218.2056 0003050 131.2119 228.9410 15.78079062211993
SL-14 R/B               
1 16792U 86046B   26271.40015313  .00000284  00000+0  29900-4 0  9991
2 16792  82.4792 248.6419 0021489 278.6838  81.1943 14.85730523156500
SL-14 R/B               
1 16882U 86055B   26271.60243175  .00000241  00000+0  24852-4 0  9996
2 16882  82.5179 295.9090 0019442  25.1865  97.1873 14.85782015149493
AJISAI (EGS)            
1 16908U 86061A   26272.15074660 -.00000079  00000+0  13069-3 0  9991
2 16908  50.0083 187.7097 0011400  84.6266  65.0619 12.44517407493333
SL-14 R/B               
1 17567U 87024B   26272.03314352  .00000267  00000+0  27506-4 0  9995
2 17567  82.5246 261.6398 0016938 310.6169  49.3573 14.86272578118330
COSMOS 1833             
1 17589U 87027A   26272.09772198 -.00000267  00000+0 -11682-3 0  9993
2 17589  70.9140 258.4596 0026464 258.4603 101.3546 14.13042108 39053
SL-16 R/B               
1 17590U 87027B   26272.11558233 -.00000202  00000+0 -76338-4 0  9999
2 17590  71.0029 207.8173 0005207 197.9637 162.1304 14.17186321 44163
SL-14 R/B               
1 17912U 87038B   26271.99826157  .00000225  00000+0  23185-4 0  9992
2 17912  82.4980 105.2887 0018423 208.6666 151.3539 14.85501885109413
COSMOS 1844             
1 17973U 87041A   26272.12651935  .00000234  00000+0  14656-3 0  9991
2 17973  70.8995 325.0648 0028718  76.1803 284.2511 14.14580350 32353
SL-14 R/B               
1 18153U 87055B   26271.19852801  .00000258  00000+0  26721-4 0  9991
2 18153  82.5012 158.1313 0022023  65.5439 294.8072 14.85765672100005
COSMOS 1867             
1 18187U 87060A   26271.59691690 -.00000057  00000+0  16223-4 0  9999
2 18187  65.0089  98.4509 0018764 280.3867  79.5102 14.31524967 48985
SL-14 R/B               
1 18749U 88001B   26271.61158742  .00000284  00000+0  29959-4 0  9999
2 18749  82.5167   4.4542 0016539 288.7728  71.1693 14.85666533 72154
COSMOS 1933             
1 18958U 88020A   26271.46036093  .00003014  00000+0  14146-3 0  9994
2 18958  82.5129  50.0969 0003455 193.7320 166.3821 15.19276610 81005
SL-3 R/B                
1 19046U 88032B   26272.17481524  .00002590  00000+0  11738-3 0  9990
2 19046  97.5379 255.2298 0023397 241.8414 118.0457 15.21552506 83035
SL-16 R/B               
1 19120U 88039B   26271.55887468  .00000101  00000+0  70629-4 0  9999
2 19120  71.0175 359.5755 0020893  23.0026 337.2030 14.19638951987177
COSMOS 1953             
1 19210U 88050A   26272.16156324  .00004036  00000+0  13247-3 0  9993
2 19210  82.5059 313.0897 0012056 120.8357 239.4072 15.31221463 68891
SL-8 R/B                
1 19257U 88053B   26271.59200877  .00000189  00000+0  69815-4 0  9994
2 19257  74.0451  98.4425 0020878 230.4404 187.2759 14.39000496  5674
COSMOS 1975             
1 19573U 88093A   26271.49443306  .00004893  00000+0  16474-3 0  9992
2 19573  82.5150 273.6967 0011570 163.5812 196.5806 15.30452104 50407
SL-14 R/B               
1 19574U 88093B   26271.33117485  .00000304  00000+0  32001-4 0  9990
2 19574  82.5323 211.8023 0022229  87.5694  69.0473 14.85796809 31105
SL-16 R/B               
1 19650U 88102B   26271.62549440 -.00000261  00000+0 -10740-3 0  9997
2 19650  70.9977  84.4904 0012282  56.0743 304.1546 14.16174511955622
INTERCOSMOS 24          
1 20261U 89080A   26271.58334676  .00000571  00000+0  16303-3 0  9994
2 20261  82.6087 332.3458 1187309 181.8262 177.8301 12.59744789692346
SL-14 R/B               
1 20262U 89080C   26271.61126858  .00000174  00000+0  42479-4 0  9993
2 20262  82.5944  42.8491 1230415  80.9039 292.8902 12.50609840685511
DELTA 1 R/B             
1 20323U 89089B   26271.46913974  .00000259  00000+0  72559-4 0  9992
2 20323  97.0664  86.5273 0068420 200.3492 159.4978 14.50781696925135
ARIANE 40 R/B           
1 20443U 90005H   26272.13660992  .00000125  00000+0  53123-4 0  9997
2 20443  98.2845 326.4622 0009153 317.3819  42.6659 14.39967621922087
DELTA 2 R/B(1)          
1 20453U 90008B   26272.24030131  .00520398  12479-3  73280-3 0  9990
2 20453  35.5903 246.6261 0013599  43.0381 317.1431 16.04500828958189
COSMOS 2058             
1 20465U 90010A   26271.29144282  .00002676  00000+0  15191-3 0  9997
2 20465  82.4704 207.6328 0009516   6.4555 353.6796 15.12511648972852
SL-14 R/B               
1 20466U 90010B   26271.55626602  .00000250  00000+0  27239-4 0  9991
2 20466  82.4993  76.8505 0019594 355.7127   4.3917 14.83698260958568
SL-14 R/B               
1 20511U 90018B   26271.63443035  .00000291  00000+0  33416-4 0  9995
2 20511  82.5232  33.3876 0016992 140.5078 219.7378 14.82270748952641
HST                     
1 20580U 90037B   26270.92146237  .00004611  00000+0  13862-3 0  9999
2 20580  28.4721  97.8607 0001365 203.0060 157.0476 15.31774285804335
SL-16 R/B               
1 20625U 90046B   26271.29841563  .00000181  00000+0  11816-3 0  9999
2 20625  70.9973 232.3856 0014472 347.8531  12.2241 14.15032546877050
COSMOS 2084             
1 20663U 90055A   26271.55709775  .00001490  00000+0  11392-3 0  9991
2 20663  62.7906   3.1717 0019366 351.8235   8.2547 15.06472688966879
SL-6 R/B(2)             
1 20666U 90055D   26272.15695584  .00001141  00000+0  93508-4 0  9996
2 20666  62.7804 281.4798 0056796  18.2862 342.0262 15.04312663968797
SL-8 R/B                
1 20775U 90078B   26271.47494110  .00007679  00000+0  20806-3 0  9990
2 20775  82.8990  68.0516 0340020  48.1741 314.7985 14.95266125839546
SL-8 R/B                
1 21088U 91006B   26271.55874192  .00000079  00000+0  64150-4 0  9999
2 21088  82.9461  19.1107 0022432 183.3993 187.0431 13.77524336792002
OKEAN-3                 
1 21397U 91039A   26271.62273359  .00001131  00000+0  76124-4 0  9998
2 21397  82.5157 140.0640 0014187   6.1991 353.9409 15.05710959895562
COSMOS 2151             
1 21422U 91042A   26271.55255046  .00001391  00000+0  10760-3 0  9997
2 21422  82.4938 247.9059 0014026  92.8613 267.4217 15.00667115893613
SL-14 R/B               
1 21423U 91042B   26271.52794536  .00000255  00000+0  29243-4 0  9992
2 21423  82.4951  29.9587 0015607 296.8287  63.1330 14.81952189883119
ERS-1                   
1 21574U 91050A   26271.59004084  .00000174  00000+0  70464-4 0  9998
2 21574  98.7764 294.8020 0031156 321.7947  38.1032 14.39570921844921
ARIANE 40 R/B           
1 21610U 91050F   26271.64507520  .00000176  00000+0  64864-4 0  9997
2 21610  98.1769 315.9803 0003486 157.1271 203.0075 14.43006206848267
INTERCOSMOS 25          
1 21819U 91086A   26271.28101796  .00001459  00000+0  27975-3 0  9998
2 21819  82.6078 187.4577 1485407  40.0302 330.1231 12.12374014521232
SL-8 R/B                
1 21876U 92008B   26271.59960069 -.00000014  00000+0 -30041-4 0  9993
2 21876  82.9239 116.9061 0033529 288.7143 126.0200 13.75992661737320
SL-8 R/B                
1 21938U 92020B   26271.55150142  .00000067  00000+0  53558-4 0  9999
2 21938  82.9350   3.0709 0030439  91.7481 279.1709 13.75561266729027
USA 81                  
1 21949U 92023A   26271.38185097  .00000127  00000+0  39753-4 0  9990
2 21949  85.0121  14.4344 0002711  96.8635 263.2867 14.32420304123803
COSMOS 2219             
1 22219U 92076A   26271.53759243 -.00000151  00000+0 -54506-4 0  9998
2 22219  71.0599 314.0178 0020363 252.3376 107.5524 14.14107297747058
SL-16 R/B               
1 22220U 92076B   26271.59939002 -.00000210  00000+0 -80914-4 0  9997
2 22220  70.9983 120.9406 0011596 155.0543 271.4864 14.16883145750570
COSMOS 2221             
1 22236U 92080A   26271.56714682  .00001185  00000+0  10121-3 0  9993
2 22236  82.5003  84.6917 0013061 226.2843 133.7298 14.96770422811137
SL-16 R/B               
1 22285U 92093B   26271.49011141 -.00000054  00000+0 -33888-5 0  9996
2 22285  71.0204 298.5244 0004943 330.2190  29.8651 14.15469699741857
COSMOS 2228             
1 22286U 92094A   26271.64226722  .00001396  00000+0  11612-3 0  9995
2 22286  82.5185  42.9025 0017153 342.7575  17.3063 14.97860946806438
SL-16 R/B               
1 22566U 93016B   26271.41050470  .00000285  00000+0  17047-3 0  9995
2 22566  71.0075 149.4057 0010011   2.5535 357.5637 14.15321294730857
COSMOS 2242             
1 22626U 93024A   26271.51585502  .00001158  00000+0  97780-4 0  9994
2 22626  82.5159  72.6505 0015726 347.8020  12.2819 14.97156352810735
SL-16 R/B               
1 22803U 93059B   26271.53680653 -.00000022  00000+0  12827-4 0  9993
2 22803  70.9900 303.3525 0019507 262.4148  97.4760 14.17259371708279
ARIANE 40 R/B           
1 22830U 93061H   26271.20081288  .00000102  00000+0  52826-4 0  9990
2 22830  98.4715 335.8651 0011500  49.3219 310.8963 14.32940677723103
COSMOS 2278             
1 23087U 94023A   26271.57254407 -.00000039  00000+0  42707-5 0  9997
2 23087  71.0523 110.6168 0006633  72.6990 287.4858 14.14412712673492
SL-16 R/B               
1 23088U 94023B   26271.59889768  .00000048  00000+0  49497-4 0  9995
2 23088  71.0021   4.7534 0004289 318.5458  41.5338 14.15028862674798
SL-16 R/B               
1 23343U 94074B   26271.63088179  .00000236  00000+0  38103-4 0  9998
2 23343  97.6945 294.0210 0005114 283.1999 189.7783 14.79573311717253
SL-16 R/B               
1 23405U 94077B   26271.50147667  .00000199  00000+0  12617-3 0  9993
2 23405  70.9813 285.8021 0004385 242.3621 117.7057 14.15584403644939
ARIANE 40+ R/B          
1 23561U 95021B   26271.44798731  .00000162  00000+0  65284-4 0  9992
2 23561  98.4315 339.9822 0005621 250.0276 120.4925 14.39877739648426
SL-16 R/B               
1 23705U 95058B   26271.58886312  .00000062  00000+0  56187-4 0  9991
2 23705  71.0197 114.2638 0012324 180.4649 179.6465 14.15519975596569
SL-16 R/B               
1 24298U 96051B   26271.56829487  .00000110  00000+0  86226-4 0  9992
2 24298  70.7675 105.8871 0018314 204.6766 155.3479 14.12485276550292
ORBVIEW 2 (SEASTAR)     
1 24883U 97037A   26271.45197035  .00000107  00000+0  53291-4 0  9994
2 24883  98.8789  81.4037 0002359 158.1840 201.9445 14.35595452537569
SL-16 R/B               
1 25400U 98043G   26271.50120726  .00000015  00000+0  25143-4 0  9990
2 25400  98.8491 226.6045 0010437 141.5267 218.6659 14.26082564467897
SL-16 R/B               
1 25407U 98045B   26271.57081898 -.00000253  00000+0 -10354-3 0  9995
2 25407  71.0094 114.9125 0005261  68.7519 291.4166 14.16213625455828
ISS (ZARYA)             
1 25544U 98067A   26271.46476993  .00006013  00000+0  11848-3 0  9990
2 25544  51.6312 148.9632 0007159 198.2260 161.8473 15.48680135587767
CZ-4B R/B               
1 25732U 99025C   26271.64106005  .00000006  00000+0  23466-4 0  9994
2 25732  98.6387 310.8286 0038082 120.1359 353.4622 14.18296843416936
OKEAN-O                 
1 25860U 99039A   26271.61750254  .00000359  00000+0  53624-4 0  9999
2 25860  97.9200 329.1696 0001760  77.2353 282.9056 14.80563478464414
SL-16 R/B               
1 25861U 99039B   26271.61110306  .00000292  00000+0  43670-4 0  9994
2 25861  97.9722 330.1188 0013868 323.0043  37.0213 14.81928148466913
DELTA 2 R/B             
1 25876U 99041E   26271.22087490  .00000337  00000+0  92107-4 0  9996
2 25876  51.7635 212.0407 0500055 226.2422 129.6088 14.12258552391640
HELIOS 1B               
1 25977U 99064A   26271.45885435  .00000880  00000+0  10173-3 0  9998
2 25977  98.1510 179.5402 0002344 100.7366 259.4114 14.88224962715410
TERRA                   
1 25994U 99068A   26271.63934896  .00000214  00000+0  52514-4 0  9994
2 25994  97.9345 317.0290 0000911 249.8264 226.0510 14.61167032424711
SL-16 R/B               
1 26070U 00006B   26271.56802773 -.00000025  00000+0  11746-4 0  9997
2 26070  71.0046  31.2446 0018429 237.3794 122.5551 14.15848403377279
TITAN 4B R/B            
1 26474U 00047B   26271.56149018  .00001777  00000+0  11345-3 0  9994
2 26474  67.9890 189.4849 0040477 179.9954 180.1204 15.10659516423546
ENVISAT                 
1 27386U 02009A   26271.51006346  .00000043  00000+0  27863-4 0  9996
2 27386  98.3945 220.5726 0001280  90.1248  22.0386 14.39084483288345
IDEFIX & ARIANE 42P R/B 
1 27422U 02021B   26271.39572108  .00000137  00000+0  68728-4 0  9990
2 27422  98.5996 207.7801 0011088 315.8980  44.1318 14.31121077273013
AQUA                    
1 27424U 02022A   26271.66893701  .00000497  00000+0  10852-3 0  9991
2 27424  98.4416 243.0886 0001263  62.6124  46.7877 14.62216553298392
CZ-4B R/B               
1 27432U 02024C   26271.59363198  .00000020  00000+0  33059-4 0  9993
2 27432  98.8586 323.6869 0050446 165.3642 324.0887 14.14576762257927
MIDORI II (ADEOS-II)    
1 27597U 02056A   26271.59872763  .00000153  00000+0  77868-4 0  9996
2 27597  98.8012 231.7989 0001993 103.1294 257.0110 14.29393913239285
H-2A R/B                
1 27601U 02056E   26271.50938098  .00000163  00000+0  71964-4 0  9999
2 27601  98.3437 224.4734 0068904 277.7457 193.0959 14.33867878243172
CZ-4B R/B               
1 28059U 03049C   26271.58126779  .00000220  00000+0  61972-4 0  9995
2 28059  98.6960 274.5792 0047560 333.8623  26.0172 14.55158928216106
SL-16 R/B               
1 28353U 04021B   26271.47109599  .00000257  00000+0  15847-3 0  9991
2 28353  71.0003 166.9324 0003040  93.4557 266.6913 14.14618746151513
CZ-4B R/B               
1 28415U 04035C   26271.05432172  .00004935  00000+0  16071-3 0  9992
2 28415  97.3286 303.0201 0028897 331.4609  28.5049 15.31910441210860
CZ-2C R/B               
1 28480U 04046B   26271.61172723  .00000083  00000+0  46467-4 0  9994
2 28480  98.1828 173.8663 0138049 274.7798  83.7632 14.27055085137448
ARIANE 5 R/B            
1 28499U 04049H   26271.45717476  .00000396  00000+0  50018-4 0  9993
2 28499  98.2793  87.7685 0084723  54.4439 306.4636 14.85572070175893
CZ-2D R/B               
1 28738U 05024B   26271.58621103  .00087212  00000+0  39296-3 0  9994
2 28738  97.3381 297.1581 0001753  67.0637 293.0818 15.83813788171629
ALOS (DAICHI)           
1 28931U 06002A   26271.47562500  .00000908  00000+0  15885-3 0  9994
2 28931  98.1445 226.7908 0001816  60.4100 299.7287 14.70241869103276
H-2A R/B                
1 28932U 06002B   26271.42939085  .00004491  00000+0  21040-3 0  9997
2 28932  98.2679  76.7873 0048205 270.2676  89.3032 15.19295175125192
RESURS-DK 1             
1 29228U 06021A   26271.60718664  .00001246  00000+0  75369-4 0  9994
2 29228  69.9313  71.7647 0004358 202.9695 157.1278 15.13553052118226
CZ-4B R/B               
1 29507U 06046C   26271.60258264  .00002656  00000+0  13080-3 0  9993
2 29507  97.5342 315.8792 0030454 283.5860  76.1982 15.18473782 90826
CZ-2C R/B               
1 31114U 07010B   26271.26689999  .00000058  00000+0  45361-4 0  9999
2 31114  98.4155  14.6037 0059996  65.8645 294.8791 14.20296492  8464
COSMO-SKYMED 1          
1 31598U 07023A   26271.58456362  .00001089  00000+0  98609-4 0  9998
2 31598  97.8823 104.3414 0001192  72.4825 287.6527 14.97489016 45266
COSMOS 2428             
1 31792U 07029A   26271.07914119 -.00000048  00000+0 -98606-7 0  9999
2 31792  70.9425 138.4743 0011746 311.8530  48.1588 14.12977451992680
SL-16 R/B               
1 31793U 07029B   26271.61471998 -.00000125  00000+0 -39839-4 0  9999
2 31793  70.9730 105.8112 0002011 278.3039 148.7941 14.14859399994071
KORONAS-FOTON           
1 33504U 09003A   26272.16893789  .00008921  00000+0  17086-3 0  9991
2 33504  82.4274  63.5944 0010516 134.3196 225.8918 15.47794909977176
CZ-2C R/B               
1 37731U 11030B   26271.45051049  .00000831  00000+0  10992-3 0  9997
2 37731  97.8777 225.0442 0053318  51.3127  61.6839 14.81643372820110
H-2A R/B                
1 38341U 12025E   26271.96924346  .00002076  00000+0  18736-3 0  9992
2 38341  98.4952 255.7677 0043740   9.3440 350.8582 14.96102544778600
SHIJIAN-16 (SJ-16)      
1 39358U 13057A   26272.19135691  .00001513  00000+0  14871-3 0  9991
2 39358  74.9733 159.6745 0016124 334.0776  25.9602 14.92809397701862
SL-4 R/B                
1 39679U 14021B   26272.14406285  .00011586  00000+0  22429-3 0  9993
2 39679  51.6052  60.6972 0086552 127.7093 233.1780 15.44215927687667
ALOS-2                  
1 39766U 14029A   26271.88795069  .00000825  00000+0  11738-3 0  9994
2 39766  97.9230   7.5662 0001543  99.0526 261.0860 14.79462723666919
YAOGAN-29               
1 41038U 15069A   26272.21110106 -.00000294  00000+0 -29412-4 0  9996
2 41038  97.9970 300.9812 0002767  65.5913 294.5589 14.83150430586047
ASTRO-H (HITOMI)        
1 41337U 16012A   26271.96434909  .00001766  00000+0  97718-4 0  9995
2 41337  30.9978 123.7430 0009506 218.9934 141.0019 15.10914766582991
HXMT (HUIYAN)           
1 42758U 17034A   26271.57846865  .00002990  00000+0  14920-3 0  9996
2 42758  43.0154 326.9933 0029985  81.2298 279.1945 15.19238014513384
SAOCOM 1A               
1 43641U 18076A   26272.16983865 -.00000003  00000+0  61223-5 0  9997
2 43641  97.8885  97.4265 0001489  84.5547 275.5836 14.82152863431502
H-2A R/B                
1 43682U 18084L   26271.61788909  .00018301  00000+0  33765-3 0  9999
2 43682  98.8402 173.3513 0021869  38.8330 321.4482 15.48938824437112
SAOCOM 1B               
1 46265U 20059A   26272.20107325  .00000116  00000+0  21101-4 0  9994
2 46265  97.8882  96.5586 0001375  84.5371 275.5999 14.82151706328891
CSS (TIANHE)            
1 48274U 21035A   26271.53947394  .00020212  00000+0  24528-3 0  9998
2 48274  41.4702  54.3995 0002792 305.9369  54.1211 15.60120089309306
COSMOS 2550             
1 48865U 21056A   26272.22578253 -.00000191  00000+0  29756-7 0  9995
2 48865  67.1375 145.1897 0008334 269.5311  90.4888 15.33836590294670
CZ-2C R/B               
1 52794U 22058K   26271.50850455  .00039896  00000+0  32131-3 0  9991
2 52794  50.1833 342.8513 0029661 346.4745  13.5434 15.69873753241834
CZ-2C R/B               
1 54039U 22132E   26271.98564675  .00103204  58492-5  39312-3 0  9993
2 54039  97.2849 284.7500 0009887  60.0449 300.1803 15.87538122222321
GSLV R/B                
1 54149U 22138AN  26271.56272946  .00001351  00000+0  11251-3 0  9990
2 54149  87.3724  98.2193 0023063 128.9975 231.3316 14.97619707214280
XRISM                   
1 57800U 23137A   26271.57864021  .00002821  00000+0  14955-3 0  9996
2 57800  31.0024  49.4741 0007542 288.8721  71.1100 15.13203674168530
ACS3                    
1 59588U 24077B   26271.61507089  .00023915  00000+0  16641-1 0  9997
2 59588  97.2311 167.9072 0051739 335.2809  24.5881 13.97968060122470
SPACEMOBILE-003         
1 61045U 24163A   26271.07594890  .00001080  00000+0  63758-4 0  9993
2 61045  52.9726 196.3847 0007434  66.5453 293.6322 15.20391921113425
SPACEMOBILE-005         
1 61046U 24163B   26271.52082660  .00004474  00000+0  21715-3 0  9997
2 61046  52.9725 194.3502 0010310  64.0540 296.1515 15.20412412113485
SPACEMOBILE-001         
1 61047U 24163C   26271.19100309  .00000935  00000+0  57181-4 0  9997
2 61047  52.9677 195.5417 0008413  69.7373 290.4525 15.20409876113430
SPACEMOBILE-002         
1 61048U 24163D   26271.30673261  .00013169  00000+0  61028-3 0  9990
2 61048  52.9748 195.0896 0007469  69.3742 290.8053 15.20389426113452
SPACEMOBILE-004         
1 61049U 24163E   26270.23710253  .00013290  00000+0  61440-3 0  9998
2 61049  52.9776 199.7491 0008734 100.4082 259.7897 15.20457196113298
CZ-8A R/B               
1 66004U 25231K   26272.09439787  .00000034  00000+0  70368-4 0  9999
2 66004  50.0050 317.2276 0116834 230.1358 128.9235 14.30186659 49816
SZ-21 MODULE            
1 66515U 25246C   26271.03647027  .00068309  00000+0  25217-3 0  9994
2 66515  41.4703  22.1410 0010175  32.0794 328.0672 15.87135151 50025
SPACEMOBILE-006         
1 67232U 25309A   26271.29341184  .00001021  00000+0  63479-4 0  9995
2 67232  52.9961 219.2196 0012271  90.8115 269.4285 15.18955685 42264
SPACEMOBILE-008         
1 69589U 26139A   26271.99063697  .00000835  00000+0  63542-4 0  9994
2 69589  52.9949 151.2291 0002295 289.9699  70.1045 15.13014131 15696
SPACEMOBILE-009         
1 69590U 26139B   26272.06389583  .00001034  00000+0  74915-4 0  9998
2 69590  52.9943 150.9611 0002469 282.4519  77.6196 15.12909159 15709
SPACEMOBILE-010         
1 69591U 26139C   26272.07461031  .00001335  00000+0  92156-4 0  9990
2 69591  52.9944 151.0323 0002628 266.1545  93.9146 15.12769425 15715
